stk.v.4.3 

BEGIN Ephemeris 
 
NumberOfEphemerisPoints		146 
ScenarioEpoch	    3 Sep 2020 22: 8:11.714800895 
InterpolationMethod		Lagrange 
InterpolationOrder		5 
CentralBody				Earth 
CoordinateSystem			TEME 
CoordinateSystemEpoch	  3 Sep 2020 22: 8:11.714800895 
DistanceUnit			Kilometers 
 
EphemerisTimePosVel 
 
       0.00000000   -4092.54148295    5873.41749214       0.03407356 -0.379124912 -0.276015307  7.448972004
 END Ephemeris 
